{"type": "FeatureCollection", "features": [{"type": "Feature", "properties": {"norad_id": 50032, "name": "COSMOS 1408 DEB", "group": "cosmos-1408-debris", "lat": -32.336278569108686, "lon": 41.25343657711276, "alt_km": 445.9326274492596, "timestamp": "2025-12-24T22:42:22.301628+00:00", "meta": {"OBJECT_NAME": "COSMOS 1408 DEB", "OBJECT_ID": "1982-092RU", "EPOCH": "2025-12-24T04:12:15.693696", "MEAN_MOTION": 15.45804792, "ECCENTRICITY": 0.0016419, "INCLINATION": 82.5629, "RA_OF_ASC_NODE": 46.7873, "ARG_OF_PERICENTER": 166.3553, "MEAN_ANOMALY": 193.8144, "EPHEMERIS_TYPE": 0, "CLASSIFICATION_TYPE": "U", "NORAD_CAT_ID": 50032, "ELEMENT_SET_NO": 999, "REV_AT_EPOCH": 22780, "BSTAR": 0.00011014701, "MEAN_MOTION_DOT": 5.403e-05, "MEAN_MOTION_DDOT": 0}, "tle": {"line1": "1 50032U 82092RU  25358.17518164  .00005403  00000+0  11015-3 0  9999", "line2": "2 50032  82.5629  46.7873 0016419 166.3553 193.8144 15.45804792227803"}}, "geometry": {"type": "Point", "coordinates": [41.25343657711276, -32.336278569108686]}}, {"type": "Feature", "properties": {"norad_id": 50058, "name": "COSMOS 1408 DEB", "group": "cosmos-1408-debris", "lat": -82.60653370239909, "lon": -33.930802200192474, "alt_km": 390.12648950779294, "timestamp": "2025-12-24T22:42:22.301650+00:00", "meta": {"OBJECT_NAME": "COSMOS 1408 DEB", "OBJECT_ID": "1982-092SW", "EPOCH": "2025-12-24T04:40:25.997376", "MEAN_MOTION": 15.64782282, "ECCENTRICITY": 0.00158541, "INCLINATION": 82.6121, "RA_OF_ASC_NODE": 57.3466, "ARG_OF_PERICENTER": 60.3761, "MEAN_ANOMALY": 299.9075, "EPHEMERIS_TYPE": 0, "CLASSIFICATION_TYPE": "U", "NORAD_CAT_ID": 50058, "ELEMENT_SET_NO": 999, "REV_AT_EPOCH": 22983, "BSTAR": 0.00034052398, "MEAN_MOTION_DOT": 0.00033423, "MEAN_MOTION_DDOT": 0}, "tle": {"line1": "1 50058U 82092SW  25358.19474534  .00033423  00000+0  34052-3 0  9990", "line2": "2 50058  82.6121  57.3466 0015854  60.3761 299.9075 15.64782282229837"}}, "geometry": {"type": "Point", "coordinates": [-33.930802200192474, -82.60653370239909]}}, {"type": "Feature", "properties": {"norad_id": 50404, "name": "COSMOS 1408 DEB", "group": "cosmos-1408-debris", "lat": -2.5309662947663196, "lon": -157.8280827713292, "alt_km": 629.6576022643785, "timestamp": "2025-12-24T22:42:22.301664+00:00", "meta": {"OBJECT_NAME": "COSMOS 1408 DEB", "OBJECT_ID": "1982-092ADS", "EPOCH": "2025-12-24T06:52:22.036224", "MEAN_MOTION": 15.15593278, "ECCENTRICITY": 0.01671175, "INCLINATION": 82.2021, "RA_OF_ASC_NODE": 203.1965, "ARG_OF_PERICENTER": 159.1978, "MEAN_ANOMALY": 201.6165, "EPHEMERIS_TYPE": 0, "CLASSIFICATION_TYPE": "U", "NORAD_CAT_ID": 50404, "ELEMENT_SET_NO": 999, "REV_AT_EPOCH": 21368, "BSTAR": 0.0036317583, "MEAN_MOTION_DOT": 0.00099565, "MEAN_MOTION_DDOT": 0}, "tle": {"line1": "1 50404U 82092ADS 25358.28636616  .00099565  00000+0  36318-2 0  9991", "line2": "2 50404  82.2021 203.1965 0167117 159.1978 201.6165 15.15593278213686"}}, "geometry": {"type": "Point", "coordinates": [-157.8280827713292, -2.5309662947663196]}}, {"type": "Feature", "properties": {"norad_id": 50621, "name": "COSMOS 1408 DEB", "group": "cosmos-1408-debris", "lat": -42.22914499701173, "lon": 54.66282244504455, "alt_km": 419.50745537527746, "timestamp": "2025-12-24T22:42:22.301675+00:00", "meta": {"OBJECT_NAME": "COSMOS 1408 DEB", "OBJECT_ID": "1982-092ALR", "EPOCH": "2025-12-24T04:23:00.556512", "MEAN_MOTION": 15.57235404, "ECCENTRICITY": 0.00291233, "INCLINATION": 82.5683, "RA_OF_ASC_NODE": 62.263, "ARG_OF_PERICENTER": 111.4174, "MEAN_ANOMALY": 249.0193, "EPHEMERIS_TYPE": 0, "CLASSIFICATION_TYPE": "U", "NORAD_CAT_ID": 50621, "ELEMENT_SET_NO": 999, "REV_AT_EPOCH": 22428, "BSTAR": 0.00037737815, "MEAN_MOTION_DOT": 0.00028099, "MEAN_MOTION_DDOT": 0}, "tle": {"line1": "1 50621U 82092ALR 25358.18264533  .00028099  00000+0  37738-3 0  9998", "line2": "2 50621  82.5683  62.2630 0029123 111.4174 249.0193 15.57235404224285"}}, "geometry": {"type": "Point", "coordinates": [54.66282244504455, -42.22914499701173]}}]}